[
  {
    "OBJECT_NAME": "STARLINK-11674 [DTC]",
    "OBJECT_ID": "25124L",
    "EPOCH": "2025-11-11T04:59:27.861504",
    "MEAN_MOTION": 15.7106532,
    "ECCENTRICITY": 0.0002207,
    "INCLINATION": 42.9993,
    "RA_OF_ASC_NODE": 23.0831,
    "ARG_OF_PERICENTER": 312.1586,
    "MEAN_ANOMALY": 47.9094,
    "EPHEMERIS_TYPE": 0,
    "CLASSIFICATION_TYPE": "U",
    "NORAD_CAT_ID": 64327,
    "ELEMENT_SET_NO": 999,
    "REV_AT_EPOCH": 2420,
    "BSTAR": 0.0025116,
    "MEAN_MOTION_DOT": 0.00338481,
    "MEAN_MOTION_DDOT": 0.0,
    "TLE_LINE1": "1 64327U 25124L   25315.20796136  .00338481  00000+0  25116-2 0  9999",
    "TLE_LINE2": "2 64327  42.9993  23.0831 0002207 312.1586  47.9094 15.71065320 24205",
    "COMMENT": "Grouped by shell and plane from TLE"
  },
  {
    "OBJECT_NAME": "STARLINK-11707 [DTC]",
    "OBJECT_ID": "25124M",
    "EPOCH": "2025-11-11T05:22:23.249280",
    "MEAN_MOTION": 15.71027388,
    "ECCENTRICITY": 0.0001764,
    "INCLINATION": 42.9988,
    "RA_OF_ASC_NODE": 23.2093,
    "ARG_OF_PERICENTER": 236.6271,
    "MEAN_ANOMALY": 123.4428,
    "EPHEMERIS_TYPE": 0,
    "CLASSIFICATION_TYPE": "U",
    "NORAD_CAT_ID": 64328,
    "ELEMENT_SET_NO": 999,
    "REV_AT_EPOCH": 2420,
    "BSTAR": 0.0021919,
    "MEAN_MOTION_DOT": 0.00293247,
    "MEAN_MOTION_DDOT": 0.0,
    "TLE_LINE1": "1 64328U 25124M   25315.22388020  .00293247  00000+0  21919-2 0  9998",
    "TLE_LINE2": "2 64328  42.9988  23.2093 0001764 236.6271 123.4428 15.71027388 24203",
    "COMMENT": "Grouped by shell and plane from TLE"
  },
  {
    "OBJECT_NAME": "STARLINK-11734 [DTC]",
    "OBJECT_ID": "25124N",
    "EPOCH": "2025-11-11T04:44:10.335840",
    "MEAN_MOTION": 15.71031339,
    "ECCENTRICITY": 0.0003376,
    "INCLINATION": 42.9989,
    "RA_OF_ASC_NODE": 22.9971,
    "ARG_OF_PERICENTER": 293.3054,
    "MEAN_ANOMALY": 66.7458,
    "EPHEMERIS_TYPE": 0,
    "CLASSIFICATION_TYPE": "U",
    "NORAD_CAT_ID": 64329,
    "ELEMENT_SET_NO": 999,
    "REV_AT_EPOCH": 2420,
    "BSTAR": 0.0021372,
    "MEAN_MOTION_DOT": 0.00285737,
    "MEAN_MOTION_DDOT": 0.0,
    "TLE_LINE1": "1 64329U 25124N   25315.19734185  .00285737  00000+0  21372-2 0  9990",
    "TLE_LINE2": "2 64329  42.9989  22.9971 0003376 293.3054  66.7458 15.71031339 24209",
    "COMMENT": "Grouped by shell and plane from TLE"
  }
]